<?xml version="1.0" encoding="UTF-8"?><gpx xmlns="http://www.topografix.com/GPX/1/1" version="1.1" creator="TruHabit synthetic replay fixture"><trk><name>Synthetic replay activity</name><trkseg><trkpt lat="50.000000000" lon="14"><time>2026-09-03T10:00:00.000Z</time></trkpt><trkpt lat="50.000154883" lon="14"><time>2026-09-03T10:00:00.333Z</time></trkpt><trkpt lat="50.000309766" lon="14"><time>2026-09-03T10:00:00.666Z</time></trkpt><trkpt lat="50.000464649" lon="14"><time>2026-09-03T10:00:01.000Z</time></trkpt><trkpt lat="50.000619533" lon="14"><time>2026-09-03T10:00:01.333Z</time></trkpt><trkpt lat="50.000774416" lon="14"><time>2026-09-03T10:00:01.666Z</time></trkpt><trkpt lat="50.000929299" lon="14"><time>2026-09-03T10:00:02.000Z</time></trkpt><trkpt lat="50.001084182" lon="14"><time>2026-09-03T10:00:02.333Z</time></trkpt><trkpt lat="50.001239065" lon="14"><time>2026-09-03T10:00:02.666Z</time></trkpt><trkpt lat="50.001393948" lon="14"><time>2026-09-03T10:00:03.000Z</time></trkpt><trkpt lat="50.001548832" lon="14"><time>2026-09-03T10:00:03.333Z</time></trkpt><trkpt lat="50.001703715" lon="14"><time>2026-09-03T10:00:03.666Z</time></trkpt><trkpt lat="50.001858598" lon="14"><time>2026-09-03T10:00:04.000Z</time></trkpt><trkpt lat="50.002013481" lon="14"><time>2026-09-03T10:00:04.333Z</time></trkpt><trkpt lat="50.002168364" lon="14"><time>2026-09-03T10:00:04.666Z</time></trkpt><trkpt lat="50.002323247" lon="14"><time>2026-09-03T10:00:05.000Z</time></trkpt><trkpt lat="50.002478131" lon="14"><time>2026-09-03T10:00:05.333Z</time></trkpt><trkpt lat="50.002633014" lon="14"><time>2026-09-03T10:00:05.666Z</time></trkpt><trkpt lat="50.002787897" lon="14"><time>2026-09-03T10:00:06.000Z</time></trkpt><trkpt lat="50.002942780" lon="14"><time>2026-09-03T10:00:06.333Z</time></trkpt><trkpt lat="50.003097663" lon="14"><time>2026-09-03T10:00:06.666Z</time></trkpt><trkpt lat="50.003252546" lon="14"><time>2026-09-03T10:00:07.000Z</time></trkpt><trkpt lat="50.003407430" lon="14"><time>2026-09-03T10:00:07.333Z</time></trkpt><trkpt lat="50.003562313" lon="14"><time>2026-09-03T10:00:07.666Z</time></trkpt><trkpt lat="50.003717196" lon="14"><time>2026-09-03T10:00:08.000Z</time></trkpt><trkpt lat="50.003872079" lon="14"><time>2026-09-03T10:00:08.333Z</time></trkpt><trkpt lat="50.004026962" lon="14"><time>2026-09-03T10:00:08.666Z</time></trkpt><trkpt lat="50.004181845" lon="14"><time>2026-09-03T10:00:09.000Z</time></trkpt><trkpt lat="50.004336729" lon="14"><time>2026-09-03T10:00:09.333Z</time></trkpt><trkpt lat="50.004491612" lon="14"><time>2026-09-03T10:00:09.666Z</time></trkpt><trkpt lat="50.004646495" lon="14"><time>2026-09-03T10:00:10.000Z</time></trkpt><trkpt lat="50.004801378" lon="14"><time>2026-09-03T10:00:10.333Z</time></trkpt><trkpt lat="50.004956261" lon="14"><time>2026-09-03T10:00:10.666Z</time></trkpt><trkpt lat="50.005111144" lon="14"><time>2026-09-03T10:00:11.000Z</time></trkpt><trkpt lat="50.005266028" lon="14"><time>2026-09-03T10:00:11.333Z</time></trkpt><trkpt lat="50.005420911" lon="14"><time>2026-09-03T10:00:11.666Z</time></trkpt><trkpt lat="50.005575794" lon="14"><time>2026-09-03T10:00:12.000Z</time></trkpt><trkpt lat="50.005730677" lon="14"><time>2026-09-03T10:00:12.333Z</time></trkpt><trkpt lat="50.005885560" lon="14"><time>2026-09-03T10:00:12.666Z</time></trkpt><trkpt lat="50.006040443" lon="14"><time>2026-09-03T10:00:13.000Z</time></trkpt><trkpt lat="50.006195327" lon="14"><time>2026-09-03T10:00:13.333Z</time></trkpt><trkpt lat="50.006350210" lon="14"><time>2026-09-03T10:00:13.666Z</time></trkpt><trkpt lat="50.006505093" lon="14"><time>2026-09-03T10:00:14.000Z</time></trkpt><trkpt lat="50.006659976" lon="14"><time>2026-09-03T10:00:14.333Z</time></trkpt><trkpt lat="50.006814859" lon="14"><time>2026-09-03T10:00:14.666Z</time></trkpt><trkpt lat="50.006969742" lon="14"><time>2026-09-03T10:00:15.000Z</time></trkpt><trkpt lat="50.007124626" lon="14"><time>2026-09-03T10:00:15.333Z</time></trkpt><trkpt lat="50.007279509" lon="14"><time>2026-09-03T10:00:15.666Z</time></trkpt><trkpt lat="50.007434392" lon="14"><time>2026-09-03T10:00:16.000Z</time></trkpt><trkpt lat="50.007589275" lon="14"><time>2026-09-03T10:00:16.333Z</time></trkpt><trkpt lat="50.007744158" lon="14"><time>2026-09-03T10:00:16.666Z</time></trkpt><trkpt lat="50.007899041" lon="14"><time>2026-09-03T10:00:17.000Z</time></trkpt><trkpt lat="50.008053925" lon="14"><time>2026-09-03T10:00:17.333Z</time></trkpt><trkpt lat="50.008208808" lon="14"><time>2026-09-03T10:00:17.666Z</time></trkpt><trkpt lat="50.008363691" lon="14"><time>2026-09-03T10:00:18.000Z</time></trkpt><trkpt lat="50.008518574" lon="14"><time>2026-09-03T10:00:18.333Z</time></trkpt><trkpt lat="50.008673457" lon="14"><time>2026-09-03T10:00:18.666Z</time></trkpt><trkpt lat="50.008828340" lon="14"><time>2026-09-03T10:00:19.000Z</time></trkpt><trkpt lat="50.008983224" lon="14"><time>2026-09-03T10:00:19.333Z</time></trkpt><trkpt lat="50.009138107" lon="14"><time>2026-09-03T10:00:19.666Z</time></trkpt><trkpt lat="50.009292990" lon="14"><time>2026-09-03T10:00:20.000Z</time></trkpt><trkpt lat="50.009447873" lon="14"><time>2026-09-03T10:00:20.333Z</time></trkpt><trkpt lat="50.009602756" lon="14"><time>2026-09-03T10:00:20.666Z</time></trkpt><trkpt lat="50.009757639" lon="14"><time>2026-09-03T10:00:21.000Z</time></trkpt><trkpt lat="50.009912523" lon="14"><time>2026-09-03T10:00:21.333Z</time></trkpt><trkpt lat="50.010067406" lon="14"><time>2026-09-03T10:00:21.666Z</time></trkpt><trkpt lat="50.010222289" lon="14"><time>2026-09-03T10:00:22.000Z</time></trkpt><trkpt lat="50.010377172" lon="14"><time>2026-09-03T10:00:22.333Z</time></trkpt><trkpt lat="50.010532055" lon="14"><time>2026-09-03T10:00:22.666Z</time></trkpt><trkpt lat="50.010686938" lon="14"><time>2026-09-03T10:00:23.000Z</time></trkpt><trkpt lat="50.010841822" lon="14"><time>2026-09-03T10:00:23.333Z</time></trkpt><trkpt lat="50.010996705" lon="14"><time>2026-09-03T10:00:23.666Z</time></trkpt><trkpt lat="50.011151588" lon="14"><time>2026-09-03T10:00:24.000Z</time></trkpt><trkpt lat="50.011306471" lon="14"><time>2026-09-03T10:00:24.333Z</time></trkpt><trkpt lat="50.011461354" lon="14"><time>2026-09-03T10:00:24.666Z</time></trkpt><trkpt lat="50.011616237" lon="14"><time>2026-09-03T10:00:25.000Z</time></trkpt><trkpt lat="50.011771121" lon="14"><time>2026-09-03T10:00:25.333Z</time></trkpt><trkpt lat="50.011926004" lon="14"><time>2026-09-03T10:00:25.666Z</time></trkpt><trkpt lat="50.012080887" lon="14"><time>2026-09-03T10:00:26.000Z</time></trkpt><trkpt lat="50.012235770" lon="14"><time>2026-09-03T10:00:26.333Z</time></trkpt><trkpt lat="50.012390653" lon="14"><time>2026-09-03T10:00:26.666Z</time></trkpt><trkpt lat="50.012545536" lon="14"><time>2026-09-03T10:00:27.000Z</time></trkpt><trkpt lat="50.012700420" lon="14"><time>2026-09-03T10:00:27.333Z</time></trkpt><trkpt lat="50.012855303" lon="14"><time>2026-09-03T10:00:27.666Z</time></trkpt><trkpt lat="50.013010186" lon="14"><time>2026-09-03T10:00:28.000Z</time></trkpt><trkpt lat="50.013165069" lon="14"><time>2026-09-03T10:00:28.333Z</time></trkpt><trkpt lat="50.013319952" lon="14"><time>2026-09-03T10:00:28.666Z</time></trkpt><trkpt lat="50.013474835" lon="14"><time>2026-09-03T10:00:29.000Z</time></trkpt><trkpt lat="50.013629719" lon="14"><time>2026-09-03T10:00:29.333Z</time></trkpt><trkpt lat="50.013784602" lon="14"><time>2026-09-03T10:00:29.666Z</time></trkpt><trkpt lat="50.013939485" lon="14"><time>2026-09-03T10:00:30.000Z</time></trkpt><trkpt lat="50.014094368" lon="14"><time>2026-09-03T10:00:30.333Z</time></trkpt><trkpt lat="50.014249251" lon="14"><time>2026-09-03T10:00:30.666Z</time></trkpt><trkpt lat="50.014404134" lon="14"><time>2026-09-03T10:00:31.000Z</time></trkpt><trkpt lat="50.014559018" lon="14"><time>2026-09-03T10:00:31.333Z</time></trkpt><trkpt lat="50.014713901" lon="14"><time>2026-09-03T10:00:31.666Z</time></trkpt><trkpt lat="50.014868784" lon="14"><time>2026-09-03T10:00:32.000Z</time></trkpt><trkpt lat="50.015023667" lon="14"><time>2026-09-03T10:00:32.333Z</time></trkpt><trkpt lat="50.015178550" lon="14"><time>2026-09-03T10:00:32.666Z</time></trkpt><trkpt lat="50.015333433" lon="14"><time>2026-09-03T10:00:33.000Z</time></trkpt><trkpt lat="50.015488317" lon="14"><time>2026-09-03T10:00:33.333Z</time></trkpt><trkpt lat="50.015643200" lon="14"><time>2026-09-03T10:00:33.666Z</time></trkpt><trkpt lat="50.015798083" lon="14"><time>2026-09-03T10:00:34.000Z</time></trkpt><trkpt lat="50.015952966" lon="14"><time>2026-09-03T10:00:34.333Z</time></trkpt><trkpt lat="50.016107849" lon="14"><time>2026-09-03T10:00:34.666Z</time></trkpt><trkpt lat="50.016262732" lon="14"><time>2026-09-03T10:00:35.000Z</time></trkpt><trkpt lat="50.016417616" lon="14"><time>2026-09-03T10:00:35.333Z</time></trkpt><trkpt lat="50.016572499" lon="14"><time>2026-09-03T10:00:35.666Z</time></trkpt><trkpt lat="50.016727382" lon="14"><time>2026-09-03T10:00:36.000Z</time></trkpt><trkpt lat="50.016882265" lon="14"><time>2026-09-03T10:00:36.333Z</time></trkpt><trkpt lat="50.017037148" lon="14"><time>2026-09-03T10:00:36.666Z</time></trkpt><trkpt lat="50.017192031" lon="14"><time>2026-09-03T10:00:37.000Z</time></trkpt><trkpt lat="50.017346915" lon="14"><time>2026-09-03T10:00:37.333Z</time></trkpt><trkpt lat="50.017501798" lon="14"><time>2026-09-03T10:00:37.666Z</time></trkpt><trkpt lat="50.017656681" lon="14"><time>2026-09-03T10:00:38.000Z</time></trkpt><trkpt lat="50.017811564" lon="14"><time>2026-09-03T10:00:38.333Z</time></trkpt><trkpt lat="50.017966447" lon="14"><time>2026-09-03T10:00:38.666Z</time></trkpt><trkpt lat="50.018121330" lon="14"><time>2026-09-03T10:00:39.000Z</time></trkpt><trkpt lat="50.018276214" lon="14"><time>2026-09-03T10:00:39.333Z</time></trkpt><trkpt lat="50.018431097" lon="14"><time>2026-09-03T10:00:39.666Z</time></trkpt><trkpt lat="50.018585980" lon="14"><time>2026-09-03T10:00:40.000Z</time></trkpt><trkpt lat="50.018740863" lon="14"><time>2026-09-03T10:00:40.333Z</time></trkpt><trkpt lat="50.018895746" lon="14"><time>2026-09-03T10:00:40.666Z</time></trkpt><trkpt lat="50.019050629" lon="14"><time>2026-09-03T10:00:41.000Z</time></trkpt><trkpt lat="50.019205513" lon="14"><time>2026-09-03T10:00:41.333Z</time></trkpt><trkpt lat="50.019360396" lon="14"><time>2026-09-03T10:00:41.666Z</time></trkpt><trkpt lat="50.019515279" lon="14"><time>2026-09-03T10:00:42.000Z</time></trkpt><trkpt lat="50.019670162" lon="14"><time>2026-09-03T10:00:42.333Z</time></trkpt><trkpt lat="50.019825045" lon="14"><time>2026-09-03T10:00:42.666Z</time></trkpt><trkpt lat="50.019979928" lon="14"><time>2026-09-03T10:00:43.000Z</time></trkpt><trkpt lat="50.020134812" lon="14"><time>2026-09-03T10:00:43.333Z</time></trkpt><trkpt lat="50.020289695" lon="14"><time>2026-09-03T10:00:43.666Z</time></trkpt><trkpt lat="50.020444578" lon="14"><time>2026-09-03T10:00:44.000Z</time></trkpt><trkpt lat="50.020599461" lon="14"><time>2026-09-03T10:00:44.333Z</time></trkpt><trkpt lat="50.020754344" lon="14"><time>2026-09-03T10:00:44.666Z</time></trkpt><trkpt lat="50.020909227" lon="14"><time>2026-09-03T10:00:45.000Z</time></trkpt><trkpt lat="50.021064111" lon="14"><time>2026-09-03T10:00:45.333Z</time></trkpt><trkpt lat="50.021218994" lon="14"><time>2026-09-03T10:00:45.666Z</time></trkpt><trkpt lat="50.021373877" lon="14"><time>2026-09-03T10:00:46.000Z</time></trkpt><trkpt lat="50.021528760" lon="14"><time>2026-09-03T10:00:46.333Z</time></trkpt><trkpt lat="50.021683643" lon="14"><time>2026-09-03T10:00:46.666Z</time></trkpt><trkpt lat="50.021838526" lon="14"><time>2026-09-03T10:00:47.000Z</time></trkpt><trkpt lat="50.021993409" lon="14"><time>2026-09-03T10:00:47.333Z</time></trkpt><trkpt lat="50.022148293" lon="14"><time>2026-09-03T10:00:47.666Z</time></trkpt><trkpt lat="50.022303176" lon="14"><time>2026-09-03T10:00:48.000Z</time></trkpt><trkpt lat="50.022458059" lon="14"><time>2026-09-03T10:00:48.333Z</time></trkpt><trkpt lat="50.022612942" lon="14"><time>2026-09-03T10:00:48.666Z</time></trkpt><trkpt lat="50.022767825" lon="14"><time>2026-09-03T10:00:49.000Z</time></trkpt><trkpt lat="50.022922708" lon="14"><time>2026-09-03T10:00:49.333Z</time></trkpt><trkpt lat="50.023077592" lon="14"><time>2026-09-03T10:00:49.666Z</time></trkpt><trkpt lat="50.023232475" lon="14"><time>2026-09-03T10:00:50.000Z</time></trkpt><trkpt lat="50.023387358" lon="14"><time>2026-09-03T10:00:50.333Z</time></trkpt><trkpt lat="50.023542241" lon="14"><time>2026-09-03T10:00:50.666Z</time></trkpt><trkpt lat="50.023697124" lon="14"><time>2026-09-03T10:00:51.000Z</time></trkpt><trkpt lat="50.023852007" lon="14"><time>2026-09-03T10:00:51.333Z</time></trkpt><trkpt lat="50.024006891" lon="14"><time>2026-09-03T10:00:51.666Z</time></trkpt><trkpt lat="50.024161774" lon="14"><time>2026-09-03T10:00:52.000Z</time></trkpt><trkpt lat="50.024316657" lon="14"><time>2026-09-03T10:00:52.333Z</time></trkpt><trkpt lat="50.024471540" lon="14"><time>2026-09-03T10:00:52.666Z</time></trkpt><trkpt lat="50.024626423" lon="14"><time>2026-09-03T10:00:53.000Z</time></trkpt><trkpt lat="50.024781306" lon="14"><time>2026-09-03T10:00:53.333Z</time></trkpt><trkpt lat="50.024936190" lon="14"><time>2026-09-03T10:00:53.666Z</time></trkpt><trkpt lat="50.025091073" lon="14"><time>2026-09-03T10:00:54.000Z</time></trkpt><trkpt lat="50.025245956" lon="14"><time>2026-09-03T10:00:54.333Z</time></trkpt><trkpt lat="50.025400839" lon="14"><time>2026-09-03T10:00:54.666Z</time></trkpt><trkpt lat="50.025555722" lon="14"><time>2026-09-03T10:00:55.000Z</time></trkpt><trkpt lat="50.025710605" lon="14"><time>2026-09-03T10:00:55.333Z</time></trkpt><trkpt lat="50.025865489" lon="14"><time>2026-09-03T10:00:55.666Z</time></trkpt><trkpt lat="50.026020372" lon="14"><time>2026-09-03T10:00:56.000Z</time></trkpt><trkpt lat="50.026175255" lon="14"><time>2026-09-03T10:00:56.333Z</time></trkpt><trkpt lat="50.026330138" lon="14"><time>2026-09-03T10:00:56.666Z</time></trkpt><trkpt lat="50.026485021" lon="14"><time>2026-09-03T10:00:57.000Z</time></trkpt><trkpt lat="50.026639904" lon="14"><time>2026-09-03T10:00:57.333Z</time></trkpt><trkpt lat="50.026794788" lon="14"><time>2026-09-03T10:00:57.666Z</time></trkpt><trkpt lat="50.026949671" lon="14"><time>2026-09-03T10:00:58.000Z</time></trkpt><trkpt lat="50.027104554" lon="14"><time>2026-09-03T10:00:58.333Z</time></trkpt><trkpt lat="50.027259437" lon="14"><time>2026-09-03T10:00:58.666Z</time></trkpt><trkpt lat="50.027414320" lon="14"><time>2026-09-03T10:00:59.000Z</time></trkpt><trkpt lat="50.027569203" lon="14"><time>2026-09-03T10:00:59.333Z</time></trkpt><trkpt lat="50.027724087" lon="14"><time>2026-09-03T10:00:59.666Z</time></trkpt><trkpt lat="50.027878970" lon="14"><time>2026-09-03T10:01:00.000Z</time></trkpt></trkseg></trk></gpx>