<?xml version="1.0" encoding="UTF-8"?><gpx xmlns="http://www.topografix.com/GPX/1/1" version="1.1" creator="TruHabit synthetic replay fixture"><trk><name>Synthetic replay activity</name><trkseg><trkpt lat="50.000000000" lon="14"><time>2026-09-02T10:00:00.000Z</time></trkpt><trkpt lat="50.000049962" lon="14"><time>2026-09-02T10:00:03.333Z</time></trkpt><trkpt lat="50.000099925" lon="14"><time>2026-09-02T10:00:06.666Z</time></trkpt><trkpt lat="50.000149887" lon="14"><time>2026-09-02T10:00:10.000Z</time></trkpt><trkpt lat="50.000199849" lon="14"><time>2026-09-02T10:00:13.333Z</time></trkpt><trkpt lat="50.000249812" lon="14"><time>2026-09-02T10:00:16.666Z</time></trkpt><trkpt lat="50.000299774" lon="14"><time>2026-09-02T10:00:20.000Z</time></trkpt><trkpt lat="50.000349736" lon="14"><time>2026-09-02T10:00:23.333Z</time></trkpt><trkpt lat="50.000399698" lon="14"><time>2026-09-02T10:00:26.666Z</time></trkpt><trkpt lat="50.000449661" lon="14"><time>2026-09-02T10:00:30.000Z</time></trkpt><trkpt lat="50.000499623" lon="14"><time>2026-09-02T10:00:33.333Z</time></trkpt><trkpt lat="50.000549585" lon="14"><time>2026-09-02T10:00:36.666Z</time></trkpt><trkpt lat="50.000599548" lon="14"><time>2026-09-02T10:00:40.000Z</time></trkpt><trkpt lat="50.000649510" lon="14"><time>2026-09-02T10:00:43.333Z</time></trkpt><trkpt lat="50.000699472" lon="14"><time>2026-09-02T10:00:46.666Z</time></trkpt><trkpt lat="50.000749435" lon="14"><time>2026-09-02T10:00:50.000Z</time></trkpt><trkpt lat="50.000799397" lon="14"><time>2026-09-02T10:00:53.333Z</time></trkpt><trkpt lat="50.000849359" lon="14"><time>2026-09-02T10:00:56.666Z</time></trkpt><trkpt lat="50.000899322" lon="14"><time>2026-09-02T10:01:00.000Z</time></trkpt><trkpt lat="50.000949284" lon="14"><time>2026-09-02T10:01:03.333Z</time></trkpt><trkpt lat="50.000999246" lon="14"><time>2026-09-02T10:01:06.666Z</time></trkpt><trkpt lat="50.001049209" lon="14"><time>2026-09-02T10:01:10.000Z</time></trkpt><trkpt lat="50.001099171" lon="14"><time>2026-09-02T10:01:13.333Z</time></trkpt><trkpt lat="50.001149133" lon="14"><time>2026-09-02T10:01:16.666Z</time></trkpt><trkpt lat="50.001199095" lon="14"><time>2026-09-02T10:01:20.000Z</time></trkpt><trkpt lat="50.001249058" lon="14"><time>2026-09-02T10:01:23.333Z</time></trkpt><trkpt lat="50.001299020" lon="14"><time>2026-09-02T10:01:26.666Z</time></trkpt><trkpt lat="50.001348982" lon="14"><time>2026-09-02T10:01:30.000Z</time></trkpt><trkpt lat="50.001398945" lon="14"><time>2026-09-02T10:01:33.333Z</time></trkpt><trkpt lat="50.001448907" lon="14"><time>2026-09-02T10:01:36.666Z</time></trkpt><trkpt lat="50.001498869" lon="14"><time>2026-09-02T10:01:40.000Z</time></trkpt><trkpt lat="50.001548832" lon="14"><time>2026-09-02T10:01:43.333Z</time></trkpt><trkpt lat="50.001598794" lon="14"><time>2026-09-02T10:01:46.666Z</time></trkpt><trkpt lat="50.001648756" lon="14"><time>2026-09-02T10:01:50.000Z</time></trkpt><trkpt lat="50.001698719" lon="14"><time>2026-09-02T10:01:53.333Z</time></trkpt><trkpt lat="50.001748681" lon="14"><time>2026-09-02T10:01:56.666Z</time></trkpt><trkpt lat="50.001798643" lon="14"><time>2026-09-02T10:02:00.000Z</time></trkpt><trkpt lat="50.001848606" lon="14"><time>2026-09-02T10:02:03.333Z</time></trkpt><trkpt lat="50.001898568" lon="14"><time>2026-09-02T10:02:06.666Z</time></trkpt><trkpt lat="50.001948530" lon="14"><time>2026-09-02T10:02:10.000Z</time></trkpt><trkpt lat="50.001998492" lon="14"><time>2026-09-02T10:02:13.333Z</time></trkpt><trkpt lat="50.002048455" lon="14"><time>2026-09-02T10:02:16.666Z</time></trkpt><trkpt lat="50.002098417" lon="14"><time>2026-09-02T10:02:20.000Z</time></trkpt><trkpt lat="50.002148379" lon="14"><time>2026-09-02T10:02:23.333Z</time></trkpt><trkpt lat="50.002198342" lon="14"><time>2026-09-02T10:02:26.666Z</time></trkpt><trkpt lat="50.002248304" lon="14"><time>2026-09-02T10:02:30.000Z</time></trkpt><trkpt lat="50.002298266" lon="14"><time>2026-09-02T10:02:33.333Z</time></trkpt><trkpt lat="50.002348229" lon="14"><time>2026-09-02T10:02:36.666Z</time></trkpt><trkpt lat="50.002398191" lon="14"><time>2026-09-02T10:02:40.000Z</time></trkpt><trkpt lat="50.002448153" lon="14"><time>2026-09-02T10:02:43.333Z</time></trkpt><trkpt lat="50.002498116" lon="14"><time>2026-09-02T10:02:46.666Z</time></trkpt><trkpt lat="50.002548078" lon="14"><time>2026-09-02T10:02:50.000Z</time></trkpt><trkpt lat="50.002598040" lon="14"><time>2026-09-02T10:02:53.333Z</time></trkpt><trkpt lat="50.002648003" lon="14"><time>2026-09-02T10:02:56.666Z</time></trkpt><trkpt lat="50.002697965" lon="14"><time>2026-09-02T10:03:00.000Z</time></trkpt><trkpt lat="50.002747927" lon="14"><time>2026-09-02T10:03:03.333Z</time></trkpt><trkpt lat="50.002797889" lon="14"><time>2026-09-02T10:03:06.666Z</time></trkpt><trkpt lat="50.002847852" lon="14"><time>2026-09-02T10:03:10.000Z</time></trkpt><trkpt lat="50.002897814" lon="14"><time>2026-09-02T10:03:13.333Z</time></trkpt><trkpt lat="50.002947776" lon="14"><time>2026-09-02T10:03:16.666Z</time></trkpt><trkpt lat="50.002997739" lon="14"><time>2026-09-02T10:03:20.000Z</time></trkpt><trkpt lat="50.003047701" lon="14"><time>2026-09-02T10:03:23.333Z</time></trkpt><trkpt lat="50.003097663" lon="14"><time>2026-09-02T10:03:26.666Z</time></trkpt><trkpt lat="50.003147626" lon="14"><time>2026-09-02T10:03:30.000Z</time></trkpt><trkpt lat="50.003197588" lon="14"><time>2026-09-02T10:03:33.333Z</time></trkpt><trkpt lat="50.003247550" lon="14"><time>2026-09-02T10:03:36.666Z</time></trkpt><trkpt lat="50.003297513" lon="14"><time>2026-09-02T10:03:40.000Z</time></trkpt><trkpt lat="50.003347475" lon="14"><time>2026-09-02T10:03:43.333Z</time></trkpt><trkpt lat="50.003397437" lon="14"><time>2026-09-02T10:03:46.666Z</time></trkpt><trkpt lat="50.003447399" lon="14"><time>2026-09-02T10:03:50.000Z</time></trkpt><trkpt lat="50.003497362" lon="14"><time>2026-09-02T10:03:53.333Z</time></trkpt><trkpt lat="50.003547324" lon="14"><time>2026-09-02T10:03:56.666Z</time></trkpt><trkpt lat="50.003597286" lon="14"><time>2026-09-02T10:04:00.000Z</time></trkpt><trkpt lat="50.003647249" lon="14"><time>2026-09-02T10:04:03.333Z</time></trkpt><trkpt lat="50.003697211" lon="14"><time>2026-09-02T10:04:06.666Z</time></trkpt><trkpt lat="50.003747173" lon="14"><time>2026-09-02T10:04:10.000Z</time></trkpt><trkpt lat="50.003797136" lon="14"><time>2026-09-02T10:04:13.333Z</time></trkpt><trkpt lat="50.003847098" lon="14"><time>2026-09-02T10:04:16.666Z</time></trkpt><trkpt lat="50.003897060" lon="14"><time>2026-09-02T10:04:20.000Z</time></trkpt><trkpt lat="50.003947023" lon="14"><time>2026-09-02T10:04:23.333Z</time></trkpt><trkpt lat="50.003996985" lon="14"><time>2026-09-02T10:04:26.666Z</time></trkpt><trkpt lat="50.004046947" lon="14"><time>2026-09-02T10:04:30.000Z</time></trkpt><trkpt lat="50.004096910" lon="14"><time>2026-09-02T10:04:33.333Z</time></trkpt><trkpt lat="50.004146872" lon="14"><time>2026-09-02T10:04:36.666Z</time></trkpt><trkpt lat="50.004196834" lon="14"><time>2026-09-02T10:04:40.000Z</time></trkpt><trkpt lat="50.004246796" lon="14"><time>2026-09-02T10:04:43.333Z</time></trkpt><trkpt lat="50.004296759" lon="14"><time>2026-09-02T10:04:46.666Z</time></trkpt><trkpt lat="50.004346721" lon="14"><time>2026-09-02T10:04:50.000Z</time></trkpt><trkpt lat="50.004396683" lon="14"><time>2026-09-02T10:04:53.333Z</time></trkpt><trkpt lat="50.004446646" lon="14"><time>2026-09-02T10:04:56.666Z</time></trkpt><trkpt lat="50.004496608" lon="14"><time>2026-09-02T10:05:00.000Z</time></trkpt><trkpt lat="50.004546570" lon="14"><time>2026-09-02T10:05:03.333Z</time></trkpt><trkpt lat="50.004596533" lon="14"><time>2026-09-02T10:05:06.666Z</time></trkpt><trkpt lat="50.004646495" lon="14"><time>2026-09-02T10:05:10.000Z</time></trkpt><trkpt lat="50.004696457" lon="14"><time>2026-09-02T10:05:13.333Z</time></trkpt><trkpt lat="50.004746420" lon="14"><time>2026-09-02T10:05:16.666Z</time></trkpt><trkpt lat="50.004796382" lon="14"><time>2026-09-02T10:05:20.000Z</time></trkpt><trkpt lat="50.004846344" lon="14"><time>2026-09-02T10:05:23.333Z</time></trkpt><trkpt lat="50.004896307" lon="14"><time>2026-09-02T10:05:26.666Z</time></trkpt><trkpt lat="50.004946269" lon="14"><time>2026-09-02T10:05:30.000Z</time></trkpt><trkpt lat="50.004996231" lon="14"><time>2026-09-02T10:05:33.333Z</time></trkpt><trkpt lat="50.005046193" lon="14"><time>2026-09-02T10:05:36.666Z</time></trkpt><trkpt lat="50.005096156" lon="14"><time>2026-09-02T10:05:40.000Z</time></trkpt><trkpt lat="50.005146118" lon="14"><time>2026-09-02T10:05:43.333Z</time></trkpt><trkpt lat="50.005196080" lon="14"><time>2026-09-02T10:05:46.666Z</time></trkpt><trkpt lat="50.005246043" lon="14"><time>2026-09-02T10:05:50.000Z</time></trkpt><trkpt lat="50.005296005" lon="14"><time>2026-09-02T10:05:53.333Z</time></trkpt><trkpt lat="50.005345967" lon="14"><time>2026-09-02T10:05:56.666Z</time></trkpt><trkpt lat="50.005395930" lon="14"><time>2026-09-02T10:06:00.000Z</time></trkpt><trkpt lat="50.005445892" lon="14"><time>2026-09-02T10:06:03.333Z</time></trkpt><trkpt lat="50.005495854" lon="14"><time>2026-09-02T10:06:06.666Z</time></trkpt><trkpt lat="50.005545817" lon="14"><time>2026-09-02T10:06:10.000Z</time></trkpt><trkpt lat="50.005595779" lon="14"><time>2026-09-02T10:06:13.333Z</time></trkpt><trkpt lat="50.005645741" lon="14"><time>2026-09-02T10:06:16.666Z</time></trkpt><trkpt lat="50.005695704" lon="14"><time>2026-09-02T10:06:20.000Z</time></trkpt><trkpt lat="50.005745666" lon="14"><time>2026-09-02T10:06:23.333Z</time></trkpt><trkpt lat="50.005795628" lon="14"><time>2026-09-02T10:06:26.666Z</time></trkpt><trkpt lat="50.005845590" lon="14"><time>2026-09-02T10:06:30.000Z</time></trkpt><trkpt lat="50.005895553" lon="14"><time>2026-09-02T10:06:33.333Z</time></trkpt><trkpt lat="50.005945515" lon="14"><time>2026-09-02T10:06:36.666Z</time></trkpt><trkpt lat="50.005995477" lon="14"><time>2026-09-02T10:06:40.000Z</time></trkpt><trkpt lat="50.006045440" lon="14"><time>2026-09-02T10:06:43.333Z</time></trkpt><trkpt lat="50.006095402" lon="14"><time>2026-09-02T10:06:46.666Z</time></trkpt><trkpt lat="50.006145364" lon="14"><time>2026-09-02T10:06:50.000Z</time></trkpt><trkpt lat="50.006195327" lon="14"><time>2026-09-02T10:06:53.333Z</time></trkpt><trkpt lat="50.006245289" lon="14"><time>2026-09-02T10:06:56.666Z</time></trkpt><trkpt lat="50.006295251" lon="14"><time>2026-09-02T10:07:00.000Z</time></trkpt><trkpt lat="50.006345214" lon="14"><time>2026-09-02T10:07:03.333Z</time></trkpt><trkpt lat="50.006395176" lon="14"><time>2026-09-02T10:07:06.666Z</time></trkpt><trkpt lat="50.006445138" lon="14"><time>2026-09-02T10:07:10.000Z</time></trkpt><trkpt lat="50.006495100" lon="14"><time>2026-09-02T10:07:13.333Z</time></trkpt><trkpt lat="50.006545063" lon="14"><time>2026-09-02T10:07:16.666Z</time></trkpt><trkpt lat="50.006595025" lon="14"><time>2026-09-02T10:07:20.000Z</time></trkpt><trkpt lat="50.006644987" lon="14"><time>2026-09-02T10:07:23.333Z</time></trkpt><trkpt lat="50.006694950" lon="14"><time>2026-09-02T10:07:26.666Z</time></trkpt><trkpt lat="50.006744912" lon="14"><time>2026-09-02T10:07:30.000Z</time></trkpt><trkpt lat="50.006794874" lon="14"><time>2026-09-02T10:07:33.333Z</time></trkpt><trkpt lat="50.006844837" lon="14"><time>2026-09-02T10:07:36.666Z</time></trkpt><trkpt lat="50.006894799" lon="14"><time>2026-09-02T10:07:40.000Z</time></trkpt><trkpt lat="50.006944761" lon="14"><time>2026-09-02T10:07:43.333Z</time></trkpt><trkpt lat="50.006994724" lon="14"><time>2026-09-02T10:07:46.666Z</time></trkpt><trkpt lat="50.007044686" lon="14"><time>2026-09-02T10:07:50.000Z</time></trkpt><trkpt lat="50.007094648" lon="14"><time>2026-09-02T10:07:53.333Z</time></trkpt><trkpt lat="50.007144611" lon="14"><time>2026-09-02T10:07:56.666Z</time></trkpt><trkpt lat="50.007194573" lon="14"><time>2026-09-02T10:08:00.000Z</time></trkpt><trkpt lat="50.007244535" lon="14"><time>2026-09-02T10:08:03.333Z</time></trkpt><trkpt lat="50.007294497" lon="14"><time>2026-09-02T10:08:06.666Z</time></trkpt><trkpt lat="50.007344460" lon="14"><time>2026-09-02T10:08:10.000Z</time></trkpt><trkpt lat="50.007394422" lon="14"><time>2026-09-02T10:08:13.333Z</time></trkpt><trkpt lat="50.007444384" lon="14"><time>2026-09-02T10:08:16.666Z</time></trkpt><trkpt lat="50.007494347" lon="14"><time>2026-09-02T10:08:20.000Z</time></trkpt><trkpt lat="50.007544309" lon="14"><time>2026-09-02T10:08:23.333Z</time></trkpt><trkpt lat="50.007594271" lon="14"><time>2026-09-02T10:08:26.666Z</time></trkpt><trkpt lat="50.007644234" lon="14"><time>2026-09-02T10:08:30.000Z</time></trkpt><trkpt lat="50.007694196" lon="14"><time>2026-09-02T10:08:33.333Z</time></trkpt><trkpt lat="50.007744158" lon="14"><time>2026-09-02T10:08:36.666Z</time></trkpt><trkpt lat="50.007794121" lon="14"><time>2026-09-02T10:08:40.000Z</time></trkpt><trkpt lat="50.007844083" lon="14"><time>2026-09-02T10:08:43.333Z</time></trkpt><trkpt lat="50.007894045" lon="14"><time>2026-09-02T10:08:46.666Z</time></trkpt><trkpt lat="50.007944008" lon="14"><time>2026-09-02T10:08:50.000Z</time></trkpt><trkpt lat="50.007993970" lon="14"><time>2026-09-02T10:08:53.333Z</time></trkpt><trkpt lat="50.008043932" lon="14"><time>2026-09-02T10:08:56.666Z</time></trkpt><trkpt lat="50.008093894" lon="14"><time>2026-09-02T10:09:00.000Z</time></trkpt><trkpt lat="50.008143857" lon="14"><time>2026-09-02T10:09:03.333Z</time></trkpt><trkpt lat="50.008193819" lon="14"><time>2026-09-02T10:09:06.666Z</time></trkpt><trkpt lat="50.008243781" lon="14"><time>2026-09-02T10:09:10.000Z</time></trkpt><trkpt lat="50.008293744" lon="14"><time>2026-09-02T10:09:13.333Z</time></trkpt><trkpt lat="50.008343706" lon="14"><time>2026-09-02T10:09:16.666Z</time></trkpt><trkpt lat="50.008393668" lon="14"><time>2026-09-02T10:09:20.000Z</time></trkpt><trkpt lat="50.008443631" lon="14"><time>2026-09-02T10:09:23.333Z</time></trkpt><trkpt lat="50.008493593" lon="14"><time>2026-09-02T10:09:26.666Z</time></trkpt><trkpt lat="50.008543555" lon="14"><time>2026-09-02T10:09:30.000Z</time></trkpt><trkpt lat="50.008593518" lon="14"><time>2026-09-02T10:09:33.333Z</time></trkpt><trkpt lat="50.008643480" lon="14"><time>2026-09-02T10:09:36.666Z</time></trkpt><trkpt lat="50.008693442" lon="14"><time>2026-09-02T10:09:40.000Z</time></trkpt><trkpt lat="50.008743405" lon="14"><time>2026-09-02T10:09:43.333Z</time></trkpt><trkpt lat="50.008793367" lon="14"><time>2026-09-02T10:09:46.666Z</time></trkpt><trkpt lat="50.008843329" lon="14"><time>2026-09-02T10:09:50.000Z</time></trkpt><trkpt lat="50.008893291" lon="14"><time>2026-09-02T10:09:53.333Z</time></trkpt><trkpt lat="50.008943254" lon="14"><time>2026-09-02T10:09:56.666Z</time></trkpt><trkpt lat="50.008993216" lon="14"><time>2026-09-02T10:10:00.000Z</time></trkpt></trkseg></trk></gpx>